#dP2020 12 25  0  0  0.00000000      96 __u+U ITR00 FIT  IAC
## 2137 432000.00000000   900.00000000 59208 0.0000000000000
+  113   C01C02C03C04C05C06C07C08C09C10C11C12C13C14C16C19C20
+        C21C22C23C24C25C26C27C28C29C30C32C33C34C35C36C37E01
+        E02E03E04E05E07E08E09E11E12E13E14E15E18E19E21E24E25
+        E26E27E30E31E33E36G01G02G03G04G05G06G07G08G09G10G11
+        G12G13G14G15G16G17G18G19G20G21G22G23G24G25G26G27G28
+        G29G30G31G32J01J02J03J07R01R02R03R04R05R07R08R09R12
+        R13R14R15R16R17R18R19R20R21R22R24  0  0  0  0  0  0
++        17 13 13 14 13  9  9  0  8  9  8  8  9  8  9  8  8
++         8  8  8  8  8  8  8  8  8  8  8  8  8  9  8  8  4
++         4  6  4  5  4  5  5  4  4  5  4  4  5  4  4  4  4
++         5  5  5  4  4  5  4  4  4  4  4  4  4  3  4  4  4
++         4  4  4  4  4  4  4  4  4  4  4  4  4  4  4  4  4
++         4  4  4  4  9  8  8  0  6  6  6  6  6  6  6  6  6
++         7  6  6  6  6  6  7  7  6  7  6  0  0  0  0  0  0
%c M  cc GPS ccc cccc cccc cccc cccc ccccc ccccc ccccc ccccc
%c cc cc ccc ccc cccc cccc cccc cccc ccccc ccccc ccccc ccccc
%f  0.0000000  0.000000000  0.00000000000  0.000000000000000
%f  0.0000000  0.000000000  0.00000000000  0.000000000000000
%i    0    0    0    0      0      0      0      0         0
%i    0    0    0    0      0      0      0      0         0
/* INFORMATION & ANALYSIS CENTER (IAC)            RAPID DATA
/* S/V CLOCKS ARE ALIGNED TO GNSS TIME                      
/* G:C1WC2W R:C1PC2P E:C1XC5X C:C2IC6I J:C1CC2S             
/* PCV:IGS14_2134 OL/AL:FES2004  NONE     YN ORB:CoN CLK:CoN
*  2020 12 25  5 45  0.00000000
PC01 -34405.841467  24387.169099    117.391850   -620.058606
PC02   4447.057435  41919.607495     -5.719724    645.262461
PC03 -14732.475188  39522.822585   -943.226352    271.361096
PC04 -39633.100227  14396.668756   -579.627822   -265.112428
PC05  21875.958406  36036.182655    275.206459   -382.473086
PC06 -19053.340091  21993.200800  30773.550894     81.422597
PC07 -18844.537049  38030.097515    643.043045   -162.716360
PC08      0.000000      0.000000      0.000000 999999.999999
PC09   -690.020848  24667.473402  34447.756755    849.324157
PC10  -8338.227808  39786.323007 -11779.491092   -116.334184
PC11  20170.474638  -7872.809107  17646.859276   -840.516011
PC12  27572.637867   3812.501898   1831.515252    687.178347
PC13   6774.965530  35945.639446 -20621.106525     68.286080
PC14  20056.430168 -18659.477055   5198.888683   -244.126596
PC16 -17488.478702  21986.467008  31456.627028   -640.061980
PC19 -15173.966793  23052.152837   4191.822533    666.364246
PC20 -21557.150217  12534.532591 -12541.690747   -910.397574
PC21  15309.608405   6029.372082  22547.336396   -766.574402
PC22    128.919340  20496.699569  18943.480144   -824.482328
PC23  -8146.677039 -26628.513035  -1895.376118   -889.242847
PC24  16142.589067  -2767.698277 -22599.886690   -732.809158
PC25   4734.512670 -21506.052503 -17160.480021   -873.699951
PC26  17561.419727  15566.116110 -15079.456557    954.113939
PC27 -24965.482542  -9961.172913   7457.353901    455.108076
PC28  -9303.082525 -16289.834135  20670.241789   -129.894070
PC29 -11248.341854  13495.531107 -21682.434519    329.357583
PC30 -26020.413611   2847.118564  -9643.962981    422.061582
PC32 -15353.104389  -5927.622823 -22528.458370   -881.118652
PC33  15112.344247 -23095.407079  -4080.062658   -884.691139
PC34  25791.804438  -3211.109581  10188.294230   -778.577850
PC35   9583.916869  16045.135555 -20730.845425   -497.425599
PC36  -5477.886719  21149.570724  17380.976098   -794.710069
PC37 -17038.081079 -16718.825384  14490.307501   -862.315935
PE01  16351.948276  -9814.923434 -22637.166151  -1010.589351
PE02 -16338.940323   9902.718887  22604.308042    186.116431
PE03 -27683.981683  10143.447573  -2700.232393   -379.815219
PE04  17048.162079 -19078.075871 -14889.612466   -674.982160
PE05 -22216.550588  -4871.915115 -18949.196140   -318.466688
PE07   3837.333467  16904.560903  23991.434685   -478.988889
PE08 -16732.066143  19141.903612  15161.128635   6072.049668
PE09  -4048.703814 -16688.441413 -24112.665644   5821.421197
PE11 -13437.911661 -21723.166219  14948.913874   6581.557134
PE12   6617.787768 -15102.079626  24589.858076   5440.313899
PE13  13231.017701  21631.681167 -15258.183045    409.012363
PE14  17771.613332  14518.759840 -20338.456095  -1271.383612
PE15  -6427.158633  15108.070204 -24615.520446    837.504072
PE18 -25502.341316  -3236.407161   7468.852616  -1389.335944
PE19  27901.082752  -8609.686052   4870.219793    161.533954
PE21  14199.962547  12087.832986 -22983.704718   -639.142105
PE24  -3229.091230 -27888.730611   9416.448418   -653.679280
PE25 -14140.871597 -12287.230743  22928.263871   -522.943885
PE26  25164.821356  15135.029888   3695.664165   2343.160740
PE27   3731.183144  27615.926640  -9954.109951     65.202568
PE30  -9399.608555  26413.947655   9457.212241   3317.240712
PE31   8852.843536 -26833.672406  -8824.090811   -476.784926
PE33  22281.384913    284.146827  19497.212356   -464.335192
PE36 -25069.252820 -15443.866810  -3026.995394    463.281024
PG01  20619.157003  12197.156936  11585.977447    790.866738
PG02 -12404.771404 -21725.141518   9570.161013   -558.371686
PG03  15100.448845   1951.886146  21673.728490    -38.776900
PG04  25042.651416   2094.198698   8673.861953   -167.251349
PG05  -5397.711513 -20681.867478 -15803.251152    -29.238192
PG06    288.255876 -18787.234686  18817.083344     -4.420000
PG07  16614.111950  -2817.762691 -20309.845342     -4.485091
PG08  20348.740792   6790.753174 -15835.593846     -4.131294
PG09  25333.475810  -7504.083455  -2880.367617   -305.325824
PG10 -11674.272433  23079.730787  -5284.144096    -23.881876
PG11  23565.725495  11578.936008  -2812.347151    -71.822576
PG12 -13298.808409  -6468.927109  21824.054180     22.232106
PG13 -11172.525187 -13280.998851 -20275.765324     78.637589
PG14  13880.958244 -21481.339768  -7168.444540     72.314895
PG15 -21657.155444  -5054.169434 -15139.868921   -180.948511
PG16   2608.922031  20906.344223 -16107.964177   -255.287334
PG17  14249.785994 -13993.595148  17933.531390    371.546849
PG18 -14812.167960   5313.639430 -21410.093265    335.722926
PG19   7052.634855 -14571.169282  20756.694858    -60.810043
PG20 -14897.448101  14891.848609 -16082.115181    525.466151
PG21  20950.047288  16200.174433   4659.406461     80.753545
PG22  12999.479581  11083.786702  20566.847384   -709.720832
PG23 -15598.181024  15804.470045 -14574.059257    112.471453
PG24 -21484.604392 -14194.409494   7058.297419      4.666949
PG25 -16562.091835   8477.433786  18600.696033     46.404796
PG26  -3705.072642  25644.059470  -5221.937565     19.685517
PG27   8479.560152  13213.642879 -21623.484385    -42.060056
PG28  12556.894938 -23272.069270  -2795.634275    638.707486
PG29 -26154.640226   4423.506122  -1798.407220   -262.725902
PG30   8920.969105 -13450.507276 -21022.024613   -357.994380
PG31   1145.925148  20140.875017  16958.737982    -89.728984
PG32 -13049.343555  15207.468632  17437.558822     10.290398
PJ01 -29520.047535  30189.493444   4026.249377   -335.247659
PJ02 -27202.621971  25547.470651  24538.034850      0.259878
PJ03 -30126.613121  17575.091119 -18951.791273     -4.828423
PJ07      0.000000      0.000000      0.000000 999999.999999
PR01   1291.274373 -14482.538889 -20960.875245     72.523362
PR02 -15908.583519    911.741984 -19862.995315    460.053981
PR03 -20741.848868  13546.481385  -5922.596346     27.934625
PR04 -13827.894134  18278.350522  11206.519037     67.125915
PR05    802.172775  12755.926378  22073.819952     63.524499
PR07  20763.042764 -13856.322219   5398.898668    -41.942651
PR08  13848.474849 -18315.316996 -11087.352118    -56.479692
PR09  11850.976554  10965.285019 -19754.858137     14.927746
PR12  -6958.489875 -23874.617906   5767.583621    191.110020
PR13 -11626.712827 -11318.335586  19667.094344    -48.407828
PR14  -9400.259106   8313.901760  22219.766396     59.112451
PR15  -1813.843929  22563.077700  11772.940317    106.208101
PR16   7851.211750  23291.368031  -6586.273646     -9.495144
PR17 -20095.151449    104.191676 -15721.508505    385.378182
PR18  -5494.365754   9061.175085 -23178.869220     60.841681
PR19  10960.412903  13452.682779 -18686.148644   -125.119257
PR20  23385.303102  10168.159222  -1203.747535   -429.626210
PR21  19337.773326   -688.706205  16611.349386   -175.590069
PR22   4452.742283  -9433.443925  23272.024813    -88.807037
PR24 -23626.273074  -9626.374558    527.267637     25.311705
EOF
